NORAD_CAT_ID,OBJECT_NAME,OBJECT_TYPE,EPOCH,MEAN_MOTION,ECCENTRICITY,INCLINATION,RA_OF_ASC_NODE,ARG_OF_PERICENTER,MEAN_ANOMALY,BSTAR,MEAN_MOTION_DOT,MEAN_MOTION_DDOT,TLE_LINE0,TLE_LINE1,TLE_LINE2,SEMIMAJOR_AXIS,PERIOD,APOGEE,PERIGEE,DECAYED
53636.0,STARLINK-4586,PAYLOAD,2023-10-01 15:51:57,15.0883999,0.0001613,53.2173,259.4459,101.8595,258.2578,2.3369e-05,8.4e-07,0.0,0 STARLINK-4586,1 53636U 22104BA  23274.66108420  .00000084  00000-0  23369-4 0  9996,2 53636  53.2173 259.4459 0001613 101.8595 258.2578 15.08839990 61864,6917.88,95.438,540.861,538.63,0.0
53636.0,STARLINK-4586,PAYLOAD,2023-10-02 02:59:40,15.08831861,0.0001626,53.2173,257.3634,106.9712,253.1459,-6.9789e-05,-1.398e-05,0.0,0 STARLINK-4586,1 53636U 22104BA  23275.12477314 -.00001398  00000-0 -69789-4 0  9996,2 53636  53.2173 257.3634 0001626 106.9712 253.1459 15.08831861 60913,6917.905,95.438,540.895,538.645,0.0
53636.0,STARLINK-4586,PAYLOAD,2023-10-02 09:21:12,15.08840584,0.0001524,53.2162,256.1712,97.4512,262.6654,-1.8639e-07,-2.91e-06,0.0,0 STARLINK-4586,1 53636U 22104BA  23275.38972713 -.00000291  00000-0 -18639-6 0  9998,2 53636  53.2162 256.1712 0001524  97.4512 262.6654 15.08840584 60952,6917.879,95.438,540.798,538.689,0.0
53636.0,STARLINK-4586,PAYLOAD,2023-10-02 15:42:44,15.08836129,0.0001576,53.2156,254.9813,100.3096,259.8073,6.9648e-05,8.21e-06,0.0,0 STARLINK-4586,1 53636U 22104BA  23275.65468719  .00000821  00000-0  69648-4 0  9995,2 53636  53.2156 254.9813 0001576 100.3096 259.8073 15.08836129 62013,6917.892,95.438,540.847,538.667,0.0
53636.0,STARLINK-4586,PAYLOAD,2023-10-03 07:36:36,15.08850735,0.0001551,53.2154,252.0077,96.9894,263.1275,0.00039831,6.059e-05,0.0,0 STARLINK-4586,1 53636U 22104BA  23276.31708441  .00006059  00000-0  39831-3 0  9997,2 53636  53.2154 252.0077 0001551  96.9894 263.1275 15.08850735 62113,6917.848,95.437,540.786,538.64,0.0
53636.0,STARLINK-4586,PAYLOAD,2023-10-03 15:33:32,15.08842813,0.0001546,53.2158,250.5188,86.597,273.5199,0.00024457,3.607e-05,0.0,0 STARLINK-4586,1 53636U 22104BA  23276.64828719  .00003607  00000-0  24457-3 0  9998,2 53636  53.2158 250.5188 0001546  86.5970 273.5199 15.08842813 61147,6917.872,95.437,540.806,538.667,0.0
53636.0,STARLINK-4586,PAYLOAD,2023-10-04 04:16:37,15.088421,0.0001354,53.2167,248.1424,89.652,270.4627,0.0002141,3.121e-05,0.0,0 STARLINK-4586,1 53636U 22104BA  23277.17820871  .00003121  00000-0  21410-3 0  9995,2 53636  53.2167 248.1424 0001354  89.6520 270.4627 15.08842100 62248,6917.874,95.437,540.676,538.802,0.0
53636.0,STARLINK-4586,PAYLOAD,2023-10-04 21:45:51,15.08845256,0.0001331,53.2148,244.8739,92.1973,267.9172,0.00022076,3.228e-05,0.0,0 STARLINK-4586,1 53636U 22104BA  23277.90684662  .00003228  00000-0  22076-3 0  9999,2 53636  53.2148 244.8739 0001331  92.1973 267.9172 15.08845256 62358,6917.864,95.437,540.65,538.809,0.0
53636.0,STARLINK-4586,PAYLOAD,2023-10-05 02:32:00,15.08848681,0.0001603,53.2158,243.9772,101.9199,258.1973,0.00023316,3.426e-05,0.0,0 STARLINK-4586,1 53636U 22104BA  23278.10556525  .00003426  00000-0  23316-3 0  9996,2 53636  53.2158 243.9772 0001603 101.9199 258.1973 15.08848681 61363,6917.854,95.437,540.828,538.61,0.0
53636.0,STARLINK-4586,PAYLOAD,2023-10-05 07:18:09,15.08858657,0.0001739,53.2155,243.084,107.4599,252.6583,0.0004006,6.096e-05,0.0,0 STARLINK-4586,1 53636U 22104BA  23278.30428102  .00006096  00000-0  40060-3 0  9998,2 53636  53.2155 243.0840 0001739 107.4599 252.6583 15.08858657 62419,6917.823,95.436,540.891,538.485,0.0
53636.0,STARLINK-4586,PAYLOAD,2023-10-05 15:15:06,15.08834454,0.0002037,53.216,241.5969,97.394,262.7283,-4.3987e-05,-9.88e-06,0.0,0 STARLINK-4586,1 53636U 22104BA  23278.63549042 -.00000988  00000-0 -43987-4 0  9999,2 53636  53.2160 241.5969 0002037  97.3940 262.7283 15.08834454 61449,6917.897,95.438,541.172,538.353,0.0
53636.0,STARLINK-4586,PAYLOAD,2023-10-06 03:58:11,15.08845422,0.0001485,53.2151,239.2194,106.6443,253.4713,0.00023606,3.471e-05,0.0,0 STARLINK-4586,1 53636U 22104BA  23279.16540661  .00003471  00000-0  23606-3 0  9999,2 53636  53.2151 239.2194 0001485 106.6443 253.4713 15.08845422 61522,6917.864,95.437,540.756,538.702,0.0
53636.0,STARLINK-4586,PAYLOAD,2023-10-07 00:38:12,15.08834678,0.0001483,53.2152,235.3545,101.689,258.4268,5.599e-05,6.03e-06,0.0,0 STARLINK-4586,1 53636U 22104BA  23280.02653365  .00000603  00000-0  55990-4 0  9998,2 53636  53.2152 235.3545 0001483 101.6890 258.4268 15.08834678 61654,6917.897,95.438,540.788,538.736,0.0
53636.0,STARLINK-4586,PAYLOAD,2023-10-07 06:59:44,15.08841731,0.0001585,53.2157,234.163,108.6573,251.4591,0.00015777,2.224e-05,0.0,0 STARLINK-4586,1 53636U 22104BA  23280.29149094  .00002224  00000-0  15777-3 0  9995,2 53636  53.2157 234.1630 0001585 108.6573 251.4591 15.08841731 62717,6917.875,95.437,540.837,538.644,0.0
53636.0,STARLINK-4586,PAYLOAD,2023-10-07 21:18:13,15.08840508,0.0001551,53.2165,231.4851,113.2053,246.9103,0.00020386,2.958e-05,0.0,0 STARLINK-4586,1 53636U 22104BA  23280.88765292  .00002958  00000-0  20386-3 0  9990,2 53636  53.2165 231.4851 0001551 113.2053 246.9103 15.08840508 62808,6917.879,95.438,540.817,538.671,0.0
53636.0,STARLINK-4586,PAYLOAD,2023-10-08 13:12:04,15.08847874,0.0001231,53.2155,228.5131,103.8016,256.3113,0.00041112,6.263e-05,0.0,0 STARLINK-4586,1 53636U 22104BA  23281.55004863  .00006263  00000-0  41112-3 0  9998,2 53636  53.2155 228.5131 0001231 103.8016 256.3113 15.08847874 62904,6917.856,95.437,540.573,538.87,0.0
53636.0,STARLINK-4586,PAYLOAD,2023-10-09 13:02:51,15.08846616,0.0001398,53.2167,224.0555,82.5049,277.6102,0.00019345,2.793e-05,0.0,0 STARLINK-4586,1 53636U 22104BA  23282.54364892  .00002793  00000-0  19345-3 0  9996,2 53636  53.2167 224.0555 0001398  82.5049 277.6102 15.08846616 63055,6917.86,95.437,540.692,538.758,0.0
53636.0,STARLINK-4586,PAYLOAD,2023-10-09 19:24:24,15.0884497,0.0002435,53.2153,222.8652,75.4305,284.6957,0.00019353,2.793e-05,0.0,0 STARLINK-4586,1 53636U 22104BA  23282.80861412  .00002793  00000-0  19353-3 0  9994,2 53636  53.2153 222.8652 0002435  75.4305 284.6957 15.08844970 62071,6917.865,95.437,541.415,538.046,0.0
53636.0,STARLINK-4586,PAYLOAD,2023-10-10 01:45:56,15.08834201,0.0001829,53.2178,221.679,85.6899,274.4302,-8.9927e-05,-1.719e-05,0.0,0 STARLINK-4586,1 53636U 22104BA  23283.07357632 -.00001719  00000-0 -89927-4 0  9992,2 53636  53.2178 221.6790 0001829  85.6899 274.4302 15.08834201 62117,6917.898,95.438,541.028,538.498,0.0
53636.0,STARLINK-4586,PAYLOAD,2023-10-10 04:56:42,15.08847303,0.0001312,53.2158,221.0807,85.1022,275.012,0.00010014,1.306e-05,0.0,0 STARLINK-4586,1 53636U 22104BA  23283.20604976  .00001306  00000-0  10014-3 0  9993,2 53636  53.2158 221.0807 0001312  85.1022 275.0120 15.08847303 62132,6917.858,95.437,540.631,538.815,0.0
53636.0,STARLINK-4586,PAYLOAD,2023-10-11 03:12:07,15.08839842,0.0001644,53.217,216.9197,78.0752,282.0425,9.9941e-05,1.303e-05,0.0,0 STARLINK-4586,1 53636U 22104BA  23284.13341789  .00001303  00000-0  99941-4 0  9990,2 53636  53.2170 216.9197 0001644  78.0752 282.0425 15.08839842 62270,6917.881,95.438,540.883,538.609,0.0
53636.0,STARLINK-4586,PAYLOAD,2023-10-11 12:44:26,15.08837052,0.0001501,53.2161,215.135,84.7382,275.3782,8.99e-05,1.143e-05,0.0,0 STARLINK-4586,1 53636U 22104BA  23284.53085958  .00001143  00000-0  89900-4 0  9993,2 53636  53.2161 215.1350 0001501  84.7382 275.3782 15.08837052 63359,6917.889,95.438,540.793,538.716,0.0
53636.0,STARLINK-4586,PAYLOAD,2023-10-12 04:38:17,15.08850795,0.0001487,53.2174,212.1594,90.981,269.1352,0.00035536,5.374e-05,0.0,0 STARLINK-4586,1 53636U 22104BA  23285.19325560  .00005374  00000-0  35536-3 0  9997,2 53636  53.2174 212.1594 0001487  90.9810 269.1352 15.08850795 62439,6917.847,95.437,540.741,538.684,0.0
53636.0,STARLINK-4586,PAYLOAD,2023-10-12 12:35:13,15.08839185,0.0001662,53.2177,210.6735,82.7224,277.3957,0.00015125,2.12e-05,0.0,0 STARLINK-4586,1 53636U 22104BA  23285.52446187  .00002120  00000-0  15125-3 0  9991,2 53636  53.2177 210.6735 0001662  82.7224 277.3957 15.08839185 63506,6917.883,95.438,540.898,538.598,0.0
53636.0,STARLINK-4586,PAYLOAD,2023-10-13 12:26:00,15.08844401,0.0001526,53.2175,206.2141,93.8683,266.2484,0.00015775,2.224e-05,0.0,0 STARLINK-4586,1 53636U 22104BA  23286.51806007  .00002224  00000-0  15775-3 0  9998,2 53636  53.2175 206.2141 0001526  93.8683 266.2484 15.08844401 63652,6917.867,95.437,540.788,538.676,0.0
53636.0,STARLINK-4586,PAYLOAD,2023-10-13 21:58:19,15.08848153,0.0001358,53.218,204.4304,90.0775,270.0373,0.00023655,3.48e-05,0.0,0 STARLINK-4586,1 53636U 22104BA  23286.91549782  .00003480  00000-0  23655-3 0  9997,2 53636  53.2180 204.4304 0001358  90.0775 270.0373 15.08848153 63718,6917.855,95.437,540.66,538.781,0.0
53636.0,STARLINK-4586,PAYLOAD,2023-10-14 04:19:50,15.08865341,0.0001781,53.2175,203.2366,105.7467,254.3722,0.00056952,8.794e-05,0.0,0 STARLINK-4586,1 53636U 22104BA  23287.18044995  .00008794  00000-0  56952-3 0  9992,2 53636  53.2175 203.2366 0001781 105.7467 254.3722 15.08865341 62731,6917.803,95.436,540.9,538.436,0.0
53636.0,STARLINK-4586,PAYLOAD,2023-10-14 18:38:19,15.08835834,0.0001973,53.2173,200.5595,108.2586,251.8621,-6.9567e-05,-1.395e-05,0.0,0 STARLINK-4586,1 53636U 22104BA  23287.77661981 -.00001395  00000-0 -69567-4 0  9996,2 53636  53.2173 200.5595 0001973 108.2586 251.8621 15.08835834 62820,6917.893,95.438,541.123,538.393,0.0
53636.0,STARLINK-4586,PAYLOAD,2023-10-14 21:49:06,15.08831732,0.0001421,53.2174,199.9649,113.5318,246.5823,-6.875e-05,-1.382e-05,0.0,0 STARLINK-4586,1 53636U 22104BA  23287.90910072 -.00001382  00000-0 -68750-4 0  9998,2 53636  53.2174 199.9649 0001421 113.5318 246.5823 15.08831732 63865,6917.906,95.438,540.754,538.788,0.0
53636.0,STARLINK-4586,PAYLOAD,2023-10-15 04:10:39,15.08833272,0.0001399,53.2175,198.778,95.6407,264.4744,0.00014851,2.076e-05,0.0,0 STARLINK-4586,1 53636U 22104BA  23288.17406442  .00002076  00000-0  14851-3 0  9990,2 53636  53.2175 198.7780 0001399  95.6407 264.4744 15.08833272 63909,6917.901,95.438,540.734,538.798,0.0
